{
  "type": "FeatureCollection",
  "features": [
    {
      "type": "Feature",
      "properties": {
        "norad_id": 66336,
        "name": "STARLINK-35404",
        "group": "last-30-days",
        "lat": -34.541976875572914,
        "lon": -8.652189540624514,
        "alt_km": 416.4137531648221,
        "timestamp": "2025-12-03T10:52:56.220206+00:00",
        "meta_object_name": "STARLINK-35404",
        "meta_object_id": "2025-253T",
        "meta_epoch": "2025-12-02T21:12:42.149088",
        "meta_mean_motion": 15.50648575,
        "meta_eccentricity": 0.0001458,
        "meta_inclination": 43.0002,
        "meta_ra_of_asc_node": 42.3018,
        "meta_arg_of_pericenter": 287.4567,
        "meta_mean_anomaly": 72.6134,
        "meta_ephemeris_type": 0,
        "meta_classification_type": "U",
        "meta_norad_cat_id": 66336,
        "meta_element_set_no": 999,
        "meta_rev_at_epoch": 540,
        "meta_bstar": 0.0022091,
        "meta_mean_motion_dot": 0.00131785,
        "meta_mean_motion_ddot": 0,
        "tle_line1": "1 66336U 25253T   25336.88382117  .00131785  00000+0  22091-2 0  9998",
        "tle_line2": "2 66336  43.0002  42.3018 0001458 287.4567  72.6134 15.50648575  5408"
      },
      "geometry": {
        "type": "Point",
        "coordinates": [
          -8.652189540624514,
          -34.541976875572914
        ]
      }
    },
    {
      "type": "Feature",
      "properties": {
        "norad_id": 66337,
        "name": "STARLINK-34783",
        "group": "last-30-days",
        "lat": -1.676590585649579,
        "lon": -138.93587528701903,
        "alt_km": 443.87824772749264,
        "timestamp": "2025-12-03T10:52:56.220218+00:00",
        "meta_object_name": "STARLINK-34783",
        "meta_object_id": "2025-253U",
        "meta_epoch": "2025-12-03T04:00:01.998720",
        "meta_mean_motion": 15.4064065,
        "meta_eccentricity": 0.0001071,
        "meta_inclination": 43.0007,
        "meta_ra_of_asc_node": 40.9168,
        "meta_arg_of_pericenter": 254.4797,
        "meta_mean_anomaly": 135.6527,
        "meta_ephemeris_type": 0,
        "meta_classification_type": "U",
        "meta_norad_cat_id": 66337,
        "meta_element_set_no": 999,
        "meta_rev_at_epoch": 543,
        "meta_bstar": 0.0018617,
        "meta_mean_motion_dot": 0.00078111,
        "meta_mean_motion_ddot": 0,
        "tle_line1": "1 66337U 25253U   25337.16668980  .00078111  00000+0  18617-2 0  9998",
        "tle_line2": "2 66337  43.0007  40.9168 0001071 254.4797 135.6527 15.40640650  5438"
      },
      "geometry": {
        "type": "Point",
        "coordinates": [
          -138.93587528701903,
          -1.676590585649579
        ]
      }
    },
    {
      "type": "Feature",
      "properties": {
        "norad_id": 66338,
        "name": "STARLINK-35477",
        "group": "last-30-days",
        "lat": 22.952917662166,
        "lon": -167.67561304889944,
        "alt_km": 440.6065435461396,
        "timestamp": "2025-12-03T10:52:56.220231+00:00",
        "meta_object_name": "STARLINK-35477",
        "meta_object_id": "2025-253V",
        "meta_epoch": "2025-12-03T00:00:02.000160",
        "meta_mean_motion": 15.40654364,
        "meta_eccentricity": 9.99e-05,
        "meta_inclination": 43.0008,
        "meta_ra_of_asc_node": 41.9681,
        "meta_arg_of_pericenter": 249.6086,
        "meta_mean_anomaly": 257.669,
        "meta_ephemeris_type": 0,
        "meta_classification_type": "U",
        "meta_norad_cat_id": 66338,
        "meta_element_set_no": 999,
        "meta_rev_at_epoch": 546,
        "meta_bstar": 0.0012719,
        "meta_mean_motion_dot": 0.00053116,
        "meta_mean_motion_ddot": 0,
        "tle_line1": "1 66338U 25253V   25337.00002315  .00053116  00000+0  12719-2 0  9991",
        "tle_line2": "2 66338  43.0008  41.9681 0000999 249.6086 257.6690 15.40654364  5462"
      },
      "geometry": {
        "type": "Point",
        "coordinates": [
          -167.67561304889944,
          22.952917662166
        ]
      }
    },
    {
      "type": "Feature",
      "properties": {
        "norad_id": 66339,
        "name": "STARLINK-35443",
        "group": "last-30-days",
        "lat": -39.006966200997844,
        "lon": -21.36959907287918,
        "alt_km": 439.9847399617929,
        "timestamp": "2025-12-03T10:52:56.220243+00:00",
        "meta_object_name": "STARLINK-35443",
        "meta_object_id": "2025-253W",
        "meta_epoch": "2025-12-03T04:00:01.998720",
        "meta_mean_motion": 15.44063124,
        "meta_eccentricity": 0.0001337,
        "meta_inclination": 43.0006,
        "meta_ra_of_asc_node": 40.656,
        "meta_arg_of_pericenter": 282.5051,
        "meta_mean_anomaly": 215.007,
        "meta_ephemeris_type": 0,
        "meta_classification_type": "U",
        "meta_norad_cat_id": 66339,
        "meta_element_set_no": 999,
        "meta_rev_at_epoch": 543,
        "meta_bstar": -0.04834,
        "meta_mean_motion_dot": -0.02013711,
        "meta_mean_motion_ddot": 0,
        "tle_line1": "1 66339U 25253W   25337.16668980 -.02013711  00000+0 -48340-1 0  9994",
        "tle_line2": "2 66339  43.0006  40.6560 0001337 282.5051 215.0070 15.44063124  5437"
      },
      "geometry": {
        "type": "Point",
        "coordinates": [
          -21.36959907287918,
          -39.006966200997844
        ]
      }
    },
    {
      "type": "Feature",
      "properties": {
        "norad_id": 66340,
        "name": "STARLINK-35218",
        "group": "last-30-days",
        "lat": -33.27434426287359,
        "lon": -5.806938917826903,
        "alt_km": 415.89510468707886,
        "timestamp": "2025-12-03T10:52:56.220255+00:00",
        "meta_object_name": "STARLINK-35218",
        "meta_object_id": "2025-253X",
        "meta_epoch": "2025-12-02T05:44:37.704192",
        "meta_mean_motion": 15.50658934,
        "meta_eccentricity": 0.0001723,
        "meta_inclination": 43.0002,
        "meta_ra_of_asc_node": 46.0659,
        "meta_arg_of_pericenter": 259.1035,
        "meta_mean_anomaly": 100.9632,
        "meta_ephemeris_type": 0,
        "meta_classification_type": "U",
        "meta_norad_cat_id": 66340,
        "meta_element_set_no": 999,
        "meta_rev_at_epoch": 530,
        "meta_bstar": 0.0021881,
        "meta_mean_motion_dot": 0.00130561,
        "meta_mean_motion_ddot": 0,
        "tle_line1": "1 66340U 25253X   25336.23932528  .00130561  00000+0  21881-2 0  9996",
        "tle_line2": "2 66340  43.0002  46.0659 0001723 259.1035 100.9632 15.50658934  5303"
      },
      "geometry": {
        "type": "Point",
        "coordinates": [
          -5.806938917826903,
          -33.27434426287359
        ]
      }
    },
    {
      "type": "Feature",
      "properties": {
        "norad_id": 66341,
        "name": "STARLINK-35522",
        "group": "last-30-days",
        "lat": -36.99119443450387,
        "lon": -14.953885953092376,
        "alt_km": 416.36761618709534,
        "timestamp": "2025-12-03T10:52:56.220268+00:00",
        "meta_object_name": "STARLINK-35522",
        "meta_object_id": "2025-253Y",
        "meta_epoch": "2025-12-02T21:14:11.077152",
        "meta_mean_motion": 15.50667334,
        "meta_eccentricity": 0.0001475,
        "meta_inclination": 43.0006,
        "meta_ra_of_asc_node": 42.3125,
        "meta_arg_of_pericenter": 295.6812,
        "meta_mean_anomaly": 64.3896,
        "meta_ephemeris_type": 0,
        "meta_classification_type": "U",
        "meta_norad_cat_id": 66341,
        "meta_element_set_no": 999,
        "meta_rev_at_epoch": 540,
        "meta_bstar": 0.0026477,
        "meta_mean_motion_dot": 0.00158674,
        "meta_mean_motion_ddot": 0,
        "tle_line1": "1 66341U 25253Y   25336.88485043  .00158674  00000+0  26477-2 0  9994",
        "tle_line2": "2 66341  43.0006  42.3125 0001475 295.6812  64.3896 15.50667334  5407"
      },
      "geometry": {
        "type": "Point",
        "coordinates": [
          -14.953885953092376,
          -36.99119443450387
        ]
      }
    },
    {
      "type": "Feature",
      "properties": {
        "norad_id": 66342,
        "name": "STARLINK-35535",
        "group": "last-30-days",
        "lat": -38.02980378347237,
        "lon": -83.82146366419751,
        "alt_km": 446.29741029795605,
        "timestamp": "2025-12-03T10:52:56.220280+00:00",
        "meta_object_name": "STARLINK-35535",
        "meta_object_id": "2025-253Z",
        "meta_epoch": "2025-12-03T04:00:01.998720",
        "meta_mean_motion": 15.40694091,
        "meta_eccentricity": 0.0001444,
        "meta_inclination": 43.0004,
        "meta_ra_of_asc_node": 40.7641,
        "meta_arg_of_pericenter": 258.0998,
        "meta_mean_anomaly": 194.2297,
        "meta_ephemeris_type": 0,
        "meta_classification_type": "U",
        "meta_norad_cat_id": 66342,
        "meta_element_set_no": 999,
        "meta_rev_at_epoch": 539,
        "meta_bstar": -0.0004292,
        "meta_mean_motion_dot": -0.00018186,
        "meta_mean_motion_ddot": 0,
        "tle_line1": "1 66342U 25253Z   25337.16668980 -.00018186  00000+0 -42920-3 0  9997",
        "tle_line2": "2 66342  43.0004  40.7641 0001444 258.0998 194.2297 15.40694091  5390"
      },
      "geometry": {
        "type": "Point",
        "coordinates": [
          -83.82146366419751,
          -38.02980378347237
        ]
      }
    }
  ]
}